STARLINK-1870           
1 47156U 20088AL  21151.58334491  .00015812  00000-0  49079-3 0  9997
2 47156  53.0524 174.4332 0004839 118.9875  95.6058 15.33561027 29817
STARLINK-1871           
1 47157U 20088AM  21151.45331909  .00000436  00000-0  48127-4 0  9995
2 47157  53.0545 207.3163 0000734 114.2062 245.9003 15.06396999 29090
STARLINK-1873           
1 47158U 20088AN  21151.41000698  .00000585  00000-0  58146-4 0  9997
2 47158  53.0513 197.5093 0000611 152.2073 207.8949 15.06409174 29227
STARLINK-1874           
1 47159U 20088AP  21151.53810115  .00000544  00000-0  55376-4 0  9991
2 47159  53.0544 206.9409 0000886 100.9013 259.2075 15.06392391 29106
STARLINK-1875           
1 47160U 20088AQ  21151.45056362 -.00001423  00000-0 -76732-4 0  9998
2 47160  53.0541 197.3254 0000365 172.5486 187.5508 15.06394622 29234
STARLINK-1876           
1 47161U 20088AR  21151.50953485  .00000442  00000-0  48527-4 0  9996
2 47161  53.0534 197.0626 0000679 148.7287 211.3742 15.06403866 29247
STARLINK-1877           
1 47162U 20088AS  21151.50492056  .00000291  00000-0  38428-4 0  9990
2 47162  53.0543 207.0664 0000712 107.7426 252.3640 15.06392308 29105
STARLINK-1878           
1 47163U 20088AT  21151.45884312  .00000776  00000-0  71018-4 0  9995
2 47163  53.0540 217.2934 0001018 107.7430 252.3670 15.06387549 28957
STARLINK-1879           
1 47164U 20088AU  21151.39250952  .00000559  00000-0  56425-4 0  9990
2 47164  53.0543 187.5677 0000554  91.1945 268.9108 15.06388655 29369
STARLINK-1880           
1 47165U 20088AV  21151.46437740  .00000492  00000-0  51898-4 0  9996
2 47165  53.0557 207.2625 0000803 112.7465 247.3608 15.06397581 29096
STARLINK-1881           
1 47166U 20088AW  21151.58334491  .00042499  00000-0  15975-2 0  9996
2 47166  53.0461 192.8350 0000695 132.8589  41.8617 15.26770054  1813
STARLINK-1884           
1 47167U 20088AX  21151.51596682  .00000422  00000-0  47352-4 0  9998
2 47167  53.0547 207.0372 0007583 235.8052 124.2219 15.06393434 29101
STARLINK-1885           
1 47168U 20088AY  21151.51231502  .00003267  00000-0  23812-3 0  9990
2 47168  53.0557 207.0509 0001064  97.6335 262.4774 15.06402686 29102
STARLINK-1886           
1 47169U 20088AZ  21151.58334491  .00029704  00000-0  13763-2 0  9996
2 47169  53.0484 184.5526 0002077 138.1502  86.4166 15.19870810 29732
STARLINK-1887           
1 47170U 20088BA  21151.50124034  .00000456  00000-0  49500-4 0  9993
2 47170  53.0555 207.0908 0000779 112.2013 247.9058 15.06392144 29105
STARLINK-1888           
1 47171U 20088BB  21151.52058737  .00000718  00000-0  67054-4 0  9997
2 47171  53.0546 197.0000 0000444 134.3443 225.7582 15.06412254 29244
STARLINK-1889           
1 47172U 20088BC  21151.46112081  .00000392  00000-0  45203-4 0  9994
2 47172  53.0450 212.3150 0001448  26.6804 333.4259 15.06398008 29029
STARLINK-1890           
1 47173U 20088BD  21151.51503970 -.00001001  00000-0 -48361-4 0  9990
2 47173  53.0542 207.0369 0000766 109.5650 250.5422 15.06396408 29109
STARLINK-1891           
1 47174U 20088BE  21151.45701326 -.00001191  00000-0 -61134-4 0  9992
2 47174  53.0542 207.2994 0000381 115.5394 244.5635 15.06397207 29096
STARLINK-1895           
1 47175U 20088BF  21151.45518936  .00000666  00000-0  63614-4 0  9995
2 47175  53.0542 187.2865 0000456 100.4826 259.6215 15.06395029 29379
STARLINK-1907           
1 47177U 20088BH  21151.50586106 -.00001186  00000-0 -60740-4 0  9994
2 47177  53.0542 197.0815 0000663 163.6366 196.4645 15.06393792 29241
STARLINK-1912           
1 47178U 20088BJ  21151.42015399  .00001283  00000-0  10501-3 0  9992
2 47178  53.0539 207.4522 0000651 142.6097 217.4938 15.06387018 29089
STARLINK-1913           
1 47179U 20088BK  21151.47451878  .00000675  00000-0  64226-4 0  9992
2 47179  53.0553 217.2274 0001014 116.6289 243.4804 15.06396334 28954
STARLINK-1914           
1 47180U 20088BL  21151.53718035 -.00001185  00000-0 -60714-4 0  9999
2 47180  53.0551 216.9472 0000982 119.6997 240.4090 15.06394851 28969
STARLINK-1927           
1 47181U 20088BM  21151.38145468  .00000479  00000-0  51037-4 0  9998
2 47181  53.0542 187.6242 0000675  94.4430 265.6637 15.06405207 29369
LUCAS (JDRS-1)          
1 47202U 20089A   21151.59007524 -.00000246  00000-0  00000-0 0  9999
2 47202   0.0444 116.7775 0003247 283.5512 152.1593  1.00273150  1933
FALCON EYE 2            
1 47226U 20090A   21151.44684492  .00000095  00000-0  17410-4 0  9994
2 47226  97.8440 226.6149 0001570  90.6454 269.4960 14.84919741 26772
GONETS-M 20             
1 47227U 20091A   21151.58007059  .00000024  00000-0  10000-3 0  9998
2 47227  82.5077   7.7379 0019482 242.5202 117.3898 12.42885072 22300
GONETS-M 21             
1 47228U 20091B   21151.55562669  .00000024  00000-0  10000-3 0  9999
2 47228  82.5000   7.6063 0013630 255.9040 104.0527 12.42862468 22297
GONETS-M 22             
1 47229U 20091C   21151.52821362  .00000011  00000-0  10358-4 0  9998
2 47229  82.5059   7.6629 0020365 235.4135 124.5025 12.42873793 22283
COSMOS 2548             
1 47230U 20091D   21151.69490758  .00000003  00000-0 -48306-4 0  9995
2 47230  82.5013   7.5406 0014538 253.3959 106.5524 12.42950258 22315
GAOFEN 14               
1 47231U 20092A   21151.60259307  .00001153  00000-0  47677-4 0  9997
2 47231  97.4199 228.2125 0010591  20.1252 115.9287 15.25965348 26894
GECAM-A                 
1 47234U 20094A   21151.63535637  .00000328  00000-0  18829-4 0  9998
2 47234  28.9997 355.6573 0012643 271.1368  88.7786 14.90730194 25766
GECAM-B                 
1 47235U 20094B   21151.62463973  .00000388  00000-0  24739-4 0  9994
2 47235  29.0002 355.5685 0013145 270.3609  89.5486 14.90807638 25760
SXM-7                   
1 47240U 20096A   21151.42224274 -.00000032  00000-0  00000-0 0  9997
2 47240   0.0361  80.5964 0001011 273.1448 292.0716  1.00272260  1843
IPM 2 & BREEZE-M R/B    
1 47242U 20097A   21150.60490530 -.00000075  00000-0  00000-0 0  9996
2 47242   0.4075 106.8721 0087541 216.8741  35.6566  0.95297429  1702
STRIX-ALPHA             
1 47253U 20098A   21151.57431895  .00002397  00000-0  10959-3 0  9990
2 47253  97.3607  45.5556 0015693  73.8934  42.7249 15.21405909 25408
CMS-01                  
1 47256U 20099A   21151.59007524 -.00000176  00000-0  00000-0 0  9991
2 47256   0.0855 105.5647 0003653 179.1869 260.0003  1.00272649  1722
ONEWEB-0102             
1 47258U 20100A   21151.56023326 -.00000662  00000-0 -18748-2 0  9992
2 47258  87.8910 357.0781 0001953  96.1115 264.0236 13.12443894 23033
ONEWEB-0109             
1 47259U 20100B   21151.41836174  .00000181  00000-0  46678-3 0  9998
2 47259  87.8882 356.9686 0002237  91.7011 268.4374 13.12443326 22845
ONEWEB-0110             
1 47260U 20100C   21151.51576147 -.00000364  00000-0 -10478-2 0  9995
2 47260  87.8930 356.9930 0002194  95.7172 264.4207 13.12445529 23026
ONEWEB-0111             
1 47261U 20100D   21151.54754938 -.00001238  00000-0 -34779-2 0  9996
2 47261  87.8935 357.0118 0002290  84.1916 275.9474 13.12448451 22868
ONEWEB-0114             
1 47262U 20100E   21151.27434497 -.00000127  00000-0 -38952-3 0  9996
2 47262  87.8857 356.9917 0002182  84.8893 275.2484 13.12444721 22789
ONEWEB-0117             
1 47263U 20100F   21151.42047458  .00000148  00000-0  37735-3 0  9990
2 47263  87.8884 357.0469 0001981  91.1059 269.0297 13.12440398 22818
ONEWEB-0118             
1 47264U 20100G   21151.52420850 -.00000383  00000-0 -10998-2 0  9997
2 47264  87.8916 357.0166 0001983  83.4078 276.7276 13.12446089 23025
ONEWEB-0119             
1 47265U 20100H   21151.55396119 -.00000324  00000-0 -93659-3 0  9992
2 47265  87.8923 357.0905 0002294  91.6778 268.4613 13.12435114 23007
ONEWEB-0120             
1 47266U 20100J   21151.50729917  .00007461  00000-0  20695-1 0  9999
2 47266  87.8979 356.9181 0001264 158.1795 201.9388 13.12417937 23023
ONEWEB-0121             
1 47267U 20100K   21151.56870210 -.00001709  00000-0 -47849-2 0  9991
2 47267  87.8992 356.9517 0001709 110.1836 249.9476 13.12456503 22942
ONEWEB-0122             
1 47268U 20100L   21151.56237900  .00000505  00000-0  13676-2 0  9997
2 47268  87.8900 356.9943 0001997  84.4697 275.6659 13.12443246 22851
ONEWEB-0123             
1 47269U 20100M   21151.55589340 -.00003251  00000-0 -90758-2 0  9994
2 47269  87.8923 357.0364 0002098  89.2092 270.9277 13.12441775 22995
ONEWEB-0124             
1 47270U 20100N   21151.54121996  .00000049  00000-0  10130-3 0  9991
2 47270  87.8892 357.0181 0001710  87.0296 273.1028 13.12454373 22875
ONEWEB-0125             
1 47271U 20100P   21151.52000095 -.00000381  00000-0 -10956-2 0  9992
2 47271  87.8967 356.9923 0001762  86.6715 273.4615 13.12443508 22939
ONEWEB-0126             
1 47272U 20100Q   21151.54542778  .00000225  00000-0  58954-3 0  9990
2 47272  87.8923 357.0851 0001985 101.3574 258.7777 13.12445078 23007
ONEWEB-0127             
1 47273U 20100R   21151.50942162 -.00000278  00000-0 -80717-3 0  9990
2 47273  87.8899 357.0227 0002078  84.5501 275.5864 13.12442711 23020
ONEWEB-0128             
1 47274U 20100S   21151.52849437 -.00000314  00000-0 -90690-3 0  9996
2 47274  87.8921 357.0012 0001938  94.3364 265.7986 13.12452673 23045
ONEWEB-0129             
1 47275U 20100T   21151.51124313 -.00000332  00000-0 -96017-3 0  9994
2 47275  87.8932 356.9243 0002895  90.5567 269.5893 13.12205917 22975
ONEWEB-0130             
1 47276U 20100U   21151.53678792  .00000233  00000-0  61327-3 0  9996
2 47276  87.8945 356.9673 0002010  85.8544 274.2815 13.12450008 22945
ONEWEB-0131             
1 47277U 20100V   21151.53271436  .00000020  00000-0  19082-4 0  9997
2 47277  87.8953 356.9158 0001760  93.8914 266.2416 13.12442398 22989
ONEWEB-0132             
1 47278U 20100W   21151.56660964  .00000340  00000-0  90869-3 0  9995
2 47278  87.8916 357.0779 0001919  80.3128 279.8217 13.12445790 22881
